{
  "norad_id": 53418,
  "name": "STARLINK-4481",
  "history": [
    {
      "epoch": "2026-03-28T04:41:01.854240Z",
      "apogee_km": 540.8295233512199,
      "perigee_km": 538.6826244146705,
      "latitude_deg": -2.3639804438998953e-05,
      "longitude_deg": 124.73246195440758,
      "height_km": 540.506515516034,
      "semi_major_axis_km": 6917.893073882945,
      "eccentricity": 0.00015517,
      "inclination_deg": 53.2193,
      "raan_deg": 20.6093,
      "arg_perigee_deg": 82.2248,
      "mean_anomaly_deg": 277.892,
      "mean_motion_rev_day": 15.0883585
    },
    {
      "epoch": "2026-03-29T02:56:25.255392Z",
      "apogee_km": 540.7299020756209,
      "perigee_km": 538.7444721839147,
      "latitude_deg": -9.451881407181489e-06,
      "longitude_deg": 145.8106254619268,
      "height_km": 540.5597797883844,
      "semi_major_axis_km": 6917.874187129767,
      "eccentricity": 0.0001435,
      "inclination_deg": 53.2183,
      "raan_deg": 16.449,
      "arg_perigee_deg": 85.7763,
      "mean_anomaly_deg": 274.3393,
      "mean_motion_rev_day": 15.08842029
    },
    {
      "epoch": "2026-03-30T01:09:36.523296Z",
      "apogee_km": 538.88315647737,
      "perigee_km": 530.2385513031659,
      "latitude_deg": -1.6613858275322532e-05,
      "longitude_deg": 167.42643641639495,
      "height_km": 534.7833915567982,
      "semi_major_axis_km": 6912.697853890268,
      "eccentricity": 0.00062527,
      "inclination_deg": 53.2185,
      "raan_deg": 12.2743,
      "arg_perigee_deg": 279.0581,
      "mean_anomaly_deg": 80.9704,
      "mean_motion_rev_day": 15.10537112
    },
    {
      "epoch": "2026-03-30T14:00:03.000384Z",
      "apogee_km": 540.7977590037244,
      "perigee_km": 538.8088511660117,
      "latitude_deg": 15.540743600361026,
      "longitude_deg": -16.164077167673017,
      "height_km": 539.7773782770774,
      "semi_major_axis_km": 6917.940305084868,
      "eccentricity": 0.00014375,
      "inclination_deg": 53.2173,
      "raan_deg": 9.8885,
      "arg_perigee_deg": 96.1834,
      "mean_anomaly_deg": 283.3555,
      "mean_motion_rev_day": 15.08820398
    },
    {
      "epoch": "2026-03-30T21:51:49.554144Z",
      "apogee_km": 540.4259310328789,
      "perigee_km": 539.097141082073,
      "latitude_deg": -1.169403827173595e-05,
      "longitude_deg": -147.83342157586637,
      "height_km": 540.5668762884264,
      "semi_major_axis_km": 6917.898536057475,
      "eccentricity": 9.604e-05,
      "inclination_deg": 53.2194,
      "raan_deg": 8.419,
      "arg_perigee_deg": 82.1159,
      "mean_anomaly_deg": 277.9942,
      "mean_motion_rev_day": 15.08834063
    },
    {
      "epoch": "2026-03-31T04:13:21.678240Z",
      "apogee_km": 540.5729691493598,
      "perigee_km": 538.9190416804249,
      "latitude_deg": 3.6231070210095097e-06,
      "longitude_deg": 115.33128805913765,
      "height_km": 540.684576309353,
      "semi_major_axis_km": 6917.883005414892,
      "eccentricity": 0.00011954,
      "inclination_deg": 53.2183,
      "raan_deg": 7.2287,
      "arg_perigee_deg": 92.9488,
      "mean_anomaly_deg": 267.1641,
      "mean_motion_rev_day": 15.08839144
    },
    {
      "epoch": "2026-04-01T00:53:22.629408Z",
      "apogee_km": 541.2384660946927,
      "perigee_km": 538.2401201517278,
      "latitude_deg": -8.860961981356962e-06,
      "longitude_deg": 160.61095608821597,
      "height_km": 539.5116849463341,
      "semi_major_axis_km": 6917.87629312321,
      "eccentricity": 0.00021671,
      "inclination_deg": 53.2191,
      "raan_deg": 3.3611,
      "arg_perigee_deg": 318.733,
      "mean_anomaly_deg": 41.3498,
      "mean_motion_rev_day": 15.0884134
    },
    {
      "epoch": "2026-04-02T18:13:25.283424Z",
      "apogee_km": 540.7414816072296,
      "perigee_km": 538.7615819094408,
      "latitude_deg": -1.161214714439357e-05,
      "longitude_deg": -108.82383259827347,
      "height_km": 540.8374847815637,
      "semi_major_axis_km": 6917.8885317583345,
      "eccentricity": 0.0001431,
      "inclination_deg": 53.22,
      "raan_deg": 355.6349,
      "arg_perigee_deg": 101.0674,
      "mean_anomaly_deg": 259.0479,
      "mean_motion_rev_day": 15.08837336
    },
    {
      "epoch": "2026-04-02T22:59:34.540224Z",
      "apogee_km": 540.7313551277775,
      "perigee_km": 538.7557468000332,
      "latitude_deg": 4.194552680418651e-05,
      "longitude_deg": 178.5501717133332,
      "height_km": 540.8661563842783,
      "semi_major_axis_km": 6917.880550963905,
      "eccentricity": 0.00014279,
      "inclination_deg": 53.2198,
      "raan_deg": 354.7433,
      "arg_perigee_deg": 103.2673,
      "mean_anomaly_deg": 256.8479,
      "mean_motion_rev_day": 15.08839947
    },
    {
      "epoch": "2026-04-03T21:14:59.311680Z",
      "apogee_km": 540.5836382785383,
      "perigee_km": 538.9413289411295,
      "latitude_deg": -4.05078675411875e-06,
      "longitude_deg": -160.3827345417793,
      "height_km": 540.627295617897,
      "semi_major_axis_km": 6917.899483609834,
      "eccentricity": 0.0001187,
      "inclination_deg": 53.218,
      "raan_deg": 350.5777,
      "arg_perigee_deg": 87.8228,
      "mean_anomaly_deg": 272.29,
      "mean_motion_rev_day": 15.08833753
    },
    {
      "epoch": "2026-04-04T03:36:29.705184Z",
      "apogee_km": 540.4851160848921,
      "perigee_km": 538.8790752036475,
      "latitude_deg": 1.981724118334502e-05,
      "longitude_deg": 102.7917114923205,
      "height_km": 540.7317207408297,
      "semi_major_axis_km": 6917.8190956442695,
      "eccentricity": 0.00011608,
      "inclination_deg": 53.2182,
      "raan_deg": 349.3899,
      "arg_perigee_deg": 101.0222,
      "mean_anomaly_deg": 259.0901,
      "mean_motion_rev_day": 15.08860053
    },
    {
      "epoch": "2026-04-05T09:48:51.346368Z",
      "apogee_km": 540.3058715875886,
      "perigee_km": 539.2193462750101,
      "latitude_deg": 2.0828767651900242e-05,
      "longitude_deg": 2.808522294856641,
      "height_km": 540.5125096363531,
      "semi_major_axis_km": 6917.8996089313,
      "eccentricity": 7.853e-05,
      "inclination_deg": 53.2174,
      "raan_deg": 343.7374,
      "arg_perigee_deg": 74.343,
      "mean_anomaly_deg": 285.7649,
      "mean_motion_rev_day": 15.08833712
    },
    {
      "epoch": "2026-04-05T20:56:33.681120Z",
      "apogee_km": 540.5251366450984,
      "perigee_km": 539.054385415704,
      "latitude_deg": 5.063516336191555e-05,
      "longitude_deg": -166.6530794032675,
      "height_km": 540.269285535034,
      "semi_major_axis_km": 6917.926761030401,
      "eccentricity": 0.0001063,
      "inclination_deg": 53.2175,
      "raan_deg": 341.6592,
      "arg_perigee_deg": 55.4697,
      "mean_anomaly_deg": 304.6396,
      "mean_motion_rev_day": 15.08824829
    },
    {
      "epoch": "2026-04-06T01:42:42.543936Z",
      "apogee_km": 540.532216456907,
      "perigee_km": 538.9758293345758,
      "latitude_deg": 1.3701277228984025e-05,
      "longitude_deg": 120.71540317960626,
      "height_km": 540.7954874397004,
      "semi_major_axis_km": 6917.891022895741,
      "eccentricity": 0.00011249,
      "inclination_deg": 53.2192,
      "raan_deg": 340.7605,
      "arg_perigee_deg": 100.7554,
      "mean_anomaly_deg": 259.3565,
      "mean_motion_rev_day": 15.08836521
    }
  ]
}